#aV2024  1 31  0  0  0.00000000     288 DD+AD WGS84 FIT  NGA
## 2299 259200.00000000   300.00000000 60340 0.0000000000000
+   32     1  2  3  4  5  6  7  8  9 10 11 12 13 14 15 16 17
+         18 19 20 21 22 23 24 25 26 27 28 29 30 31 32  0  0
+          0  0  0  0  0  0  0  0  0  0  0  0  0  0  0  0  0
+          0  0  0  0  0  0  0  0  0  0  0  0  0  0  0  0  0
+          0  0  0  0  0  0  0  0  0  0  0  0  0  0  0  0  0
++         2  2  2  2  2  2  2  2  2  2  2  2  2  2  2  2  2
++         2  2  2  2  2  2  2  2  2  2  2  2  2  2  2  0  0
++         0  0  0  0  0  0  0  0  0  0  0  0  0  0  0  0  0
++         0  0  0  0  0  0  0  0  0  0  0  0  0  0  0  0  0
++         0  0  0  0  0  0  0  0  0  0  0  0  0  0  0  0  0
%c cc cc ccc ccc cccc cccc cccc cccc ccccc ccccc ccccc ccccc
%c cc cc ccc ccc cccc cccc cccc cccc ccccc ccccc ccccc ccccc
%f  0.0000000  0.000000000  0.00000000000  0.000000000000000
%f  0.0000000  0.000000000  0.00000000000  0.000000000000000
%i    0    0    0    0      0      0      0      0         0
%i    0    0    0    0      0      0      0      0         0
/*      NGA, ST. LOUIS,MO.                                  
/*   EPHEMERIS COMPUTED FROM 2 DAYS OF DATA                 
/*   EPOCHA v9 SMOOTHER                                     
/*   G2296 IERS2010 SATIGS SATAPC                           
*  2024  1 31  3 10  0.00000000
P  1  18416.249953  12639.577032 -14967.250992    167.761895                    
V  1 -18180.020557  -1605.116311 -23958.469718      0.012968                    
P  2  11924.831011  13624.761211 -19023.589563   -492.843195                    
V  2 -25149.493559    158.498449 -15015.581205      0.057804                    
P  3  11874.116515  23650.497847   2784.782593    161.962319                    
V  3   -448.048760   4186.109598 -31893.615830      0.250757                    
P  4   5952.612846  15455.100754  20746.911620    279.678021                    
V  4 -17348.096295  19834.496654  -9934.905202      0.095705                    
P  5  -5194.520675 -24499.546789   8531.888728   -159.982199                    
V  5   6988.528967   8953.839929  29461.542483     -0.014448                    
P  6  21014.708991  -6916.939141  14844.423959    425.418336                    
V  6  18268.559182   3878.853055 -24066.575851     -0.140878                    
P  7  25886.135268   6115.824493   3905.248229    -50.387458                    
V  7  -4606.765241   2090.538325  30706.446995     -0.092206                    
P  8   -720.103450  20860.299975 -16261.443831   -164.727591                    
V  8 -13785.908594  15556.416122  21102.377165     -0.018809                    
P  9  15793.514881   3368.162449  21014.578027     76.241875                    
V  9 -15175.909680  22189.239582   7760.946612      0.124624                    
P 10 -14210.113158   3925.588098 -21902.610808    -71.420094                    
V 10 -10915.905229 -26031.173694   2080.591509     -0.014466                    
P 11  10394.023978 -12795.237669  20840.232192   -559.174454                    
V 11  25858.337630   5379.208991  -9651.586563     -0.133957                    
P 12 -10067.599374 -24477.272905   2359.183191   -473.234179                    
V 12   1478.839933  -4027.516741 -31571.157156     -0.037681                    
P 13  11199.889180 -21493.594076 -10803.987120    621.023472                    
V 13  11178.550740  -7866.349538  27972.352649      0.035985                    
P 14  16271.188604     86.780206 -20998.571403    313.008254                    
V 14   9081.443469  25155.303830   6949.664252      0.101152                    
P 15  -2014.830640 -21224.509638 -16199.112607    122.730458                    
V 15  11634.459060 -16249.851088  20676.238353      0.039071                    
P 16  -2575.222634  22395.530921  13338.369147   -373.008909                    
V 16  -7860.033868 -16030.765699  25236.478652      0.080416                    
P 17  20483.576441  -9344.441290 -13781.655911    718.428096                    
V 17 -10354.724975  15030.122285 -24671.971381     -0.010759                    
P 18 -26091.807037  -5124.517179   1951.403553   -544.737643                    
V 18   2736.697009  -1848.048364  31807.770884     -0.087566                    
P 19  20503.266223 -15374.396633  -6407.313052    433.979128                    
V 19  -3509.447069   7634.229835 -30786.292535      0.052776                    
P 20   4243.516738 -18293.230439  18907.667666    389.322958                    
V 20  14095.918172  19294.420772  15388.068631     -0.014519                    
P 21   7088.808633  14675.419288 -20665.122340    136.619255                    
V 21 -27166.646187   -572.900781  -8551.491019     -0.012975                    
P 22  12810.444749  -8580.821523 -21228.481921     39.192587                    
V 22   8784.552027  26520.745603  -5028.528181     -0.063667                    
P 23 -17426.343131  -9287.895276 -17831.963543    146.145537                    
V 23  -8194.206442 -21070.438803  18775.351331      0.077924                    
P 24  -9899.356026 -15115.051606 -19999.086699   -423.544989                    
V 24  24512.629768   -323.811683 -11723.997792     -0.066631                    
P 25 -16524.186943 -17325.189846  11447.337553    487.063282                    
V 25  -3681.319442 -14739.185470 -26561.585106      0.012356                    
P 26  -8907.572546  14938.654889  19831.270553    195.152620                    
V 26 -13093.578082 -22182.718619  11116.126432     -0.037868                    
P 27 -11642.097932  22830.205655  -6319.113048      0.343426                    
V 27  -6989.387840   4465.994666  30736.255666     -0.035645                    
P 28 -22724.929786   6402.794002  12137.980716   -115.345541                    
V 28 -15168.383931  -3754.629320 -26373.370494     -0.121024                    
P 29 -14379.195120  -5849.563837  21515.582585   -607.854687                    
V 29  17847.612248 -20769.630589   6169.456605      0.006644                    
P 30  25708.105566  -1764.433696  -6865.017614   -438.762695                    
V 30   8357.830597   4345.341277  29368.924905      0.048417                    
P 31 -15865.938845  10773.177143  18332.979465   -227.582245                    
V 31 -23118.443724  -4894.763701 -16539.033473     -0.001783                    
P 32 -19793.629368  12957.590515 -11661.712584   -608.781847                    
V 32   7012.666584 -13716.257193 -26896.105219     -0.024440                    
EOF
